     3.04           N: GNSS NAV DATA    M: Mixed            RINEX VERSION / TYPE
CONVBIN 2.4.3                           20250913 134408 UTC PGM / RUN BY / DATE 
format: u-blox UBX                                          COMMENT             
log: D:\GPdata\evening\OLD_COM3___460800_250913_133530.ubx  COMMENT             
                                                            END OF HEADER       
G08 2025 09 13 13 59 44  .531353522092D-03 -.795807864051D-12  .000000000000D+00
      .100000000000D+01  .985312500000D+02  .476484133191D-08  .467074274261D+00
      .524334609509D-05  .106679606251D-01  .581517815590D-05  .515361895180D+04
      .568784000000D+06  .447034835815D-07 -.118261834368D+01  .217929482460D-06
      .945731680789D+00  .258531250000D+03  .463367602652D+00 -.838320633705D-08
      .125005206969D-10  .100000000000D+01  .238300000000D+04  .000000000000D+00
      .200000000000D+01  .000000000000D+00  .465661287308D-08  .100000000000D+01
      .567666000000D+06  .400000000000D+01
G27 2025 09 13 14 00 00 -.250344164670D-04 -.795807864051D-12  .000000000000D+00
      .220000000000D+02  .108250000000D+03  .453626038202D-08  .552920579064D+00
      .559911131859D-05  .135208554566D-01  .632740557194D-05  .515366331291D+04
      .568800000000D+06 -.173225998878D-06 -.115204927333D+01  .156462192535D-06
      .954828825162D+00  .254781250000D+03  .852962480442D+00 -.837284876276D-08
     -.314298806093D-10  .100000000000D+01  .238300000000D+04  .000000000000D+00
      .200000000000D+01  .000000000000D+00  .186264514923D-08  .220000000000D+02
      .567666000000D+06  .400000000000D+01
G16 2025 09 13 14 00 00  .102793797851D-03  .829913915368D-11  .000000000000D+00
      .101000000000D+03  .563125000000D+02  .439482591928D-08  .141647559435D+01
      .295788049698D-05  .145047217375D-01  .104382634163D-04  .515357017136D+04
      .568800000000D+06 -.270083546638D-06 -.209961265190D+01 -.130385160446D-07
      .958991268899D+00  .182906250000D+03  .895252207602D+00 -.801604818630D-08
     -.441446959466D-09  .100000000000D+01  .238300000000D+04  .000000000000D+00
      .200000000000D+01  .000000000000D+00 -.107102096081D-07  .101000000000D+03
      .567666000000D+06  .400000000000D+01
G02 2025 09 13 14 00 00 -.745938159525D-04  .886757334229D-11  .000000000000D+00
      .370000000000D+02 -.596875000000D+01  .466340853540D-08  .821053030417D+00
     -.605359673500D-06  .165553595871D-01  .306963920593D-05  .515366076851D+04
      .568800000000D+06  .113621354103D-06 -.178200217817D+00 -.299885869026D-06
      .965026263869D+00  .323375000000D+03 -.933609482228D+00 -.849856828520D-08
      .714315468392D-11  .100000000000D+01  .238300000000D+04  .000000000000D+00
      .200000000000D+01  .000000000000D+00 -.176951289177D-07  .370000000000D+02
      .567666000000D+06  .400000000000D+01
G09 2025 09 13 14 00 00  .739903189242D-03  .534328137292D-11  .000000000000D+00
      .950000000000D+02 -.374062500000D+02  .454126059030D-08  .104358264015D+01
     -.214017927647D-05  .348754564766D-02  .783987343311D-05  .515364509201D+04
      .568800000000D+06 -.167638063431D-07  .197657228984D+01 -.111758708954D-06
      .962652076563D+00  .228687500000D+03  .200815578562D+01 -.797176062726D-08
      .269296931584D-09  .100000000000D+01  .238300000000D+04  .000000000000D+00
      .200000000000D+01  .000000000000D+00  .465661287308D-09  .950000000000D+02
      .567666000000D+06  .400000000000D+01
G07 2025 09 13 14 00 00 -.751931220293D-04 -.591171556152D-11  .000000000000D+00
      .640000000000D+02 -.176562500000D+02  .482020078071D-08 -.238073017186D+01
     -.972300767899D-06  .198617205024D-01  .729411840439D-05  .515368302536D+04
      .568800000000D+06  .258907675743D-06  .304955652003D+01 -.409781932831D-07
      .950998237077D+00  .229968750000D+03 -.202615181532D+01 -.778389565907D-08
     -.435732435719D-10  .100000000000D+01  .238300000000D+04  .000000000000D+00
      .200000000000D+01  .000000000000D+00 -.107102096081D-07  .640000000000D+02
      .567666000000D+06  .400000000000D+01
G04 2025 09 13 14 00 00  .671669840813D-05  .352429196937D-11  .000000000000D+00
      .690000000000D+02 -.358750000000D+02  .445447126089D-08  .275575709783D+00
     -.200048089027D-05  .345580058638D-02  .760145485401D-05  .515358502960D+04
      .568800000000D+06  .204890966415D-07  .203962232550D+01 -.204890966415D-07
      .968657792691D+00  .234250000000D+03 -.295235578679D+01 -.794318800852D-08
      .202508435289D-09  .100000000000D+01  .238300000000D+04  .000000000000D+00
      .200000000000D+01  .000000000000D+00 -.465661287308D-08  .325000000000D+03
      .567666000000D+06  .400000000000D+01
G26 2025 09 13 14 00 00 -.262135639787D-03 -.159161572810D-11  .000000000000D+00
      .580000000000D+02  .451562500000D+02  .509164065870D-08  .233033147223D+01
      .219605863094D-05  .103447833098D-01  .101067125797D-04  .515363199615D+04
      .568800000000D+06 -.143423676491D-06 -.228012238434D+01 -.204890966415D-06
      .928901917179D+00  .168343750000D+03  .649419076511D+00 -.811819529828D-08
     -.366086677551D-09  .100000000000D+01  .238300000000D+04  .000000000000D+00
      .200000000000D+01  .000000000000D+00  .651925802231D-08  .580000000000D+02
      .567666000000D+06  .400000000000D+01
J07 2025 09 13 14 00 00 -.931322574615D-09  .000000000000D+00  .000000000000D+00
      .181000000000D+03 -.255750000000D+03  .000000000000D+00  .236526552440D+01
     -.854767858982D-05  .214247731492D-03  .120326876640D-05  .649337300301D+04
      .568800000000D+06 -.935047864914D-06 -.256149575258D+01 -.156275928020D-05
      .130792776044D-02 -.317812500000D+02 -.910215135600D-01  .120362156424D-08
      .000000000000D+00  .200000000000D+01  .238300000000D+04  .100000000000D+01
      .280000000000D+01  .100000000000D+01 -.512227416039D-08  .949000000000D+03
      .567666000000D+06  .100000000000D+01
J03 2025 09 13 14 00 00 -.126007944345D-05 -.341060513165D-12  .000000000000D+00
      .181000000000D+03 -.609687500000D+02 -.101254217645D-08  .149608762695D+01
     -.282190740108D-05  .746261706809D-01 -.154897570610D-04  .649334190369D+04
      .568800000000D+06  .559724867344D-05  .136818506354D-01  .157579779625D-05
      .703271766686D+00  .665968750000D+03 -.158058799006D+01  .104397205706D-08
     -.212151694112D-09  .200000000000D+01  .238300000000D+04  .100000000000D+01
      .280000000000D+01  .100000000000D+01  .465661287308D-09  .949000000000D+03
      .567666000000D+06  .100000000000D+01
J02 2025 09 13 14 00 00 -.374810770154D-05 -.568434188608D-12  .000000000000D+00
      .181000000000D+03  .627000000000D+03  .152184910541D-08 -.302758784559D+01
      .191647559404D-04  .750843711430D-01  .235568732023D-04  .649369158936D+04
      .568800000000D+06 -.219792127609D-06 -.172914037508D+01 -.763684511185D-07
      .695264493357D+00 -.649468750000D+03 -.156460805751D+01 -.198079679385D-08
     -.621811615235D-09  .200000000000D+01  .238300000000D+04  .100000000000D+01
      .280000000000D+01  .100000000000D+01  .186264514923D-08  .949000000000D+03
      .567666000000D+06  .100000000000D+01
R19 2025 09 13 13 45 00 -.174678862095D-04 -.454747350886D-11  .567660000000D+06
     -.172698647461D+05  .102870845795D+01  .000000000000D+00  .000000000000D+00
      .148038447266D+05 -.121643733978D+01 -.186264514923D-08  .300000000000D+01
      .116058540039D+05  .307576560974D+01 -.931322574615D-09  .000000000000D+00
R09 2025 09 13 13 45 00  .278237275779D-03  .272848410532D-11  .567660000000D+06
     -.611990527344D+04 -.303700065613D+01 -.931322574615D-09  .000000000000D+00
      .109281831055D+05 -.257625579834D-01 -.186264514923D-08 -.200000000000D+01
      .222312397461D+05 -.832324028015D+00 -.186264514923D-08  .000000000000D+00
R16 2025 09 13 13 45 00  .396827235818D-04  .000000000000D+00  .567660000000D+06
     -.222293686523D+05 -.160413837433D+01 -.931322574615D-09  .000000000000D+00
      .441482421875D+04  .687561035156D-01 -.186264514923D-08 -.100000000000D+01
      .116797338867D+05 -.308582496643D+01  .000000000000D+00  .000000000000D+00
R18 2025 09 13 13 45 00  .222080387175D-03  .181898940355D-11  .567660000000D+06
     -.121675483398D+05  .177505970001D+01 -.186264514923D-08  .000000000000D+00
     -.330872558594D+03 -.250524806976D+01 -.279396772385D-08 -.300000000000D+01
      .224296049805D+05  .929886817932D+00 -.931322574615D-09  .000000000000D+00
R20 2025 09 13 13 45 00 -.136506743729D-03  .000000000000D+00  .567660000000D+06
     -.120421948242D+05 -.361639022827D+00  .931322574615D-09  .000000000000D+00
      .214565136719D+05  .871710777283D+00  .000000000000D+00  .200000000000D+01
     -.666610546875D+04  .345492935181D+01  .000000000000D+00  .000000000000D+00
R07 2025 09 13 13 45 00  .112018547952D-03  .000000000000D+00  .567660000000D+06
      .121905634766D+05  .280620574951D+00  .186264514923D-08  .000000000000D+00
      .223019096680D+05  .131908416748D+00  .931322574615D-09  .500000000000D+01
      .181437402344D+04 -.357880210876D+01 -.186264514923D-08  .000000000000D+00
C26 2025 09 13 13 00 00 -.521480455063D-03 -.584154946637D-11  .000000000000D+00
      .100000000000D+01  .281250000000D+01  .414195824347D-08  .122631030269D+01
      .185798853636D-06  .932549359277D-03  .900169834495D-05  .528265393257D+04
      .565200000000D+06 -.149011611938D-07 -.272085342608D+01 -.786967575550D-07
      .946116660848D+00  .176515625000D+03  .722653504573D+00 -.678849705386D-08
     -.430375069706D-09  .000000000000D+00  .102700000000D+04  .000000000000D+00
      .200000000000D+01  .000000000000D+00 -.320000000000D-08 -.320000000000D-08
      .567660000000D+06  .100000000000D+01
